{"type": "FeatureCollection", "features": [ {"type": "Feature", "properties": {"norad_id": 66393, "name": "STARLINK-35652", "group": "last-30-days", "lat": 40.20432239138235, "lon": 92.69172510003332, "alt_km": 412.6639999950394, "timestamp": "2025-12-02T15:49:05.947869+00:00", "meta": {"OBJECT_NAME": "STARLINK-35652", "OBJECT_ID": "2025-257P", "EPOCH": "2025-12-02T06:00:02.999808", "MEAN_MOTION": 15.49324064, "ECCENTRICITY": 0.00016435, "INCLINATION": 53.1587, "RA_OF_ASC_NODE": 313.9711, "ARG_OF_PERICENTER": 91.3512, "MEAN_ANOMALY": 271.9724, "EPHEMERIS_TYPE": 0, "CLASSIFICATION_TYPE": "U", "NORAD_CAT_ID": 66393, "ELEMENT_SET_NO": 999, "REV_AT_EPOCH": 481, "BSTAR": -0.0012480625, "MEAN_MOTION_DOT": -0.00069288, "MEAN_MOTION_DDOT": 0}, "tle": {"line1": "1 66393U 25257P   25336.25003472 -.00069288  00000+0 -12481-2 0  9992", "line2": "2 66393  53.1587 313.9711 0001643  91.3512 271.9724 15.49324064  4811"}}, "geometry": {"type": "Point", "coordinates": [92.69172510003332, 40.20432239138235]}}, {"type": "Feature", "properties": {"norad_id": 66394, "name": "STARLINK-35672", "group": "last-30-days", "lat": 37.764700435420664, "lon": 96.49711175186684, "alt_km": 413.17100237149043, "timestamp": "2025-12-02T15:49:05.947879+00:00", "meta": {"OBJECT_NAME": "STARLINK-35672", "OBJECT_ID": "2025-257Q", "EPOCH": "2025-12-02T06:00:02.999808", "MEAN_MOTION": 15.49318282, "ECCENTRICITY": 0.00015587, "INCLINATION": 53.1587, "RA_OF_ASC_NODE": 313.9626, "ARG_OF_PERICENTER": 87.6119, "MEAN_ANOMALY": 279.5459, "EPHEMERIS_TYPE": 0, "CLASSIFICATION_TYPE": "U", "NORAD_CAT_ID": 66394, "ELEMENT_SET_NO": 999, "REV_AT_EPOCH": 481, "BSTAR": -0.0010547042, "MEAN_MOTION_DOT": -0.00058689, "MEAN_MOTION_DDOT": 0}, "tle": {"line1": "1 66394U 25257Q   25336.25003472 -.00058689  00000+0 -10547-2 0  9997", "line2": "2 66394  53.1587 313.9626 0001558  87.6119 279.5459 15.49318282  4817"}}, "geometry": {"type": "Point", "coordinates": [96.49711175186684, 37.764700435420664]}}, {"type": "Feature", "properties": {"norad_id": 66395, "name": "STARLINK-35681", "group": "last-30-days", "lat": 36.49839224492027, "lon": 98.3088772130157, "alt_km": 413.33217199405954, "timestamp": "2025-12-02T15:49:05.947891+00:00", "meta": {"OBJECT_NAME": "STARLINK-35681", "OBJECT_ID": "2025-257R", "EPOCH": "2025-12-02T06:00:02.999808", "MEAN_MOTION": 15.49333043, "ECCENTRICITY": 0.00015333, "INCLINATION": 53.1587, "RA_OF_ASC_NODE": 313.9594, "ARG_OF_PERICENTER": 95.9798, "MEAN_ANOMALY": 273.0944, "EPHEMERIS_TYPE": 0, "CLASSIFICATION_TYPE": "U", "NORAD_CAT_ID": 66395, "ELEMENT_SET_NO": 999, "REV_AT_EPOCH": 465, "BSTAR": -0.0015377457, "MEAN_MOTION_DOT": -0.00085121, "MEAN_MOTION_DDOT": 0}, "tle": {"line1": "1 66395U 25257R   25336.25003472 -.00085121  00000+0 -15377-2 0  9995", "line2": "2 66395  53.1587 313.9594 0001533  95.9798 273.0944 15.49333043  4652"}}, "geometry": {"type": "Point", "coordinates": [98.3088772130157, 36.49839224492027]}}, {"type": "Feature", "properties": {"norad_id": 66396, "name": "STARLINK-35669", "group": "last-30-days", "lat": 35.20932648003692, "lon": 100.05507494662706, "alt_km": 413.63497199205267, "timestamp": "2025-12-02T15:49:05.947903+00:00", "meta": {"OBJECT_NAME": "STARLINK-35669", "OBJECT_ID": "2025-257S", "EPOCH": "2025-12-02T06:00:02.999808", "MEAN_MOTION": 15.4931953, "ECCENTRICITY": 0.00015114, "INCLINATION": 53.1587, "RA_OF_ASC_NODE": 313.9547, "ARG_OF_PERICENTER": 89.5314, "MEAN_ANOMALY": 281.4631, "EPHEMERIS_TYPE": 0, "CLASSIFICATION_TYPE": "U", "NORAD_CAT_ID": 66396, "ELEMENT_SET_NO": 999, "REV_AT_EPOCH": 481, "BSTAR": -0.0011656295, "MEAN_MOTION_DOT": -0.00064767, "MEAN_MOTION_DDOT": 0}, "tle": {"line1": "1 66396U 25257S   25336.25003472 -.00064767  00000+0 -11656-2 0  9995", "line2": "2 66396  53.1587 313.9547 0001511  89.5314 281.4631 15.49319530  4819"}}, "geometry": {"type": "Point", "coordinates": [100.05507494662706, 35.20932648003692]}}, {"type": "Feature", "properties": {"norad_id": 66397, "name": "STARLINK-35510", "group": "last-30-days", "lat": 33.89418697662222, "lon": 101.74930477467903, "alt_km": 414.0275505164118, "timestamp": "2025-12-02T15:49:05.947913+00:00", "meta": {"OBJECT_NAME": "STARLINK-35510", "OBJECT_ID": "2025-257T", "EPOCH": "2025-12-02T06:00:02.999808", "MEAN_MOTION": 15.49329571, "ECCENTRICITY": 0.00012678, "INCLINATION": 53.1587, "RA_OF_ASC_NODE": 313.9512, "ARG_OF_PERICENTER": 86.7347, "MEAN_ANOMALY": 286.1734, "EPHEMERIS_TYPE": 0, "CLASSIFICATION_TYPE": "U", "NORAD_CAT_ID": 66397, "ELEMENT_SET_NO": 999, "REV_AT_EPOCH": 481, "BSTAR": -0.0014707378, "MEAN_MOTION_DOT": -0.00081457, "MEAN_MOTION_DDOT": 0}, "tle": {"line1": "1 66397U 25257T   25336.25003472 -.00081457  00000+0 -14707-2 0  9991", "line2": "2 66397  53.1587 313.9512 0001267  86.7347 286.1734 15.49329571  4817"}}, "geometry": {"type": "Point", "coordinates": [101.74930477467903, 33.89418697662222]}}, {"type": "Feature", "properties": {"norad_id": 66398, "name": "STARLINK-35642", "group": "last-30-days", "lat": 32.55652436772252, "lon": 103.39038366368997, "alt_km": 414.1356955236279, "timestamp": "2025-12-02T15:49:05.947923+00:00", "meta": {"OBJECT_NAME": "STARLINK-35642", "OBJECT_ID": "2025-257U", "EPOCH": "2025-12-02T06:00:02.999808", "MEAN_MOTION": 15.49327238, "ECCENTRICITY": 0.00014146, "INCLINATION": 53.1587, "RA_OF_ASC_NODE": 313.9466, "ARG_OF_PERICENTER": 92.2942, "MEAN_ANOMALY": 282.5331, "EPHEMERIS_TYPE": 0, "CLASSIFICATION_TYPE": "U", "NORAD_CAT_ID": 66398, "ELEMENT_SET_NO": 999, "REV_AT_EPOCH": 481, "BSTAR": -0.0014466177, "MEAN_MOTION_DOT": -0.00080137, "MEAN_MOTION_DDOT": 0}, "tle": {"line1": "1 66398U 25257U   25336.25003472 -.00080137  00000+0 -14466-2 0  9998", "line2": "2 66398  53.1587 313.9466 0001414  92.2942 282.5331 15.49327238  4814"}}, "geometry": {"type": "Point", "coordinates": [103.39038366368997, 32.55652436772252]}}, {"type": "Feature", "properties": {"norad_id": 66399, "name": "STARLINK-35657", "group": "last-30-days", "lat": 31.195425469017884, "lon": 104.98666832971766, "alt_km": 414.3292065601572, "timestamp": "2025-12-02T15:49:05.947933+00:00", "meta": {"OBJECT_NAME": "STARLINK-35657", "OBJECT_ID": "2025-257V", "EPOCH": "2025-12-02T06:00:02.999808", "MEAN_MOTION": 15.49329494, "ECCENTRICITY": 0.00014855, "INCLINATION": 53.1587, "RA_OF_ASC_NODE": 313.9429, "ARG_OF_PERICENTER": 93.7681, "MEAN_ANOMALY": 282.9785, "EPHEMERIS_TYPE": 0, "CLASSIFICATION_TYPE": "U", "NORAD_CAT_ID": 66399, "ELEMENT_SET_NO": 999, "REV_AT_EPOCH": 481, "BSTAR": -0.0015192575, "MEAN_MOTION_DOT": -0.00084103, "MEAN_MOTION_DDOT": 0}, "tle": {"line1": "1 66399U 25257V   25336.25003472 -.00084103  00000+0 -15193-2 0  9994", "line2": "2 66399  53.1587 313.9429 0001485  93.7681 282.9785 15.49329494  4811"}}, "geometry": {"type": "Point", "coordinates": [104.98666832971766, 31.195425469017884]}}, {"type": "Feature", "properties": {"norad_id": 66400, "name": "STARLINK-35667", "group": "last-30-days", "lat": 28.421794125553376, "lon": 108.03884165418539, "alt_km": 414.778564823333, "timestamp": "2025-12-02T15:49:05.947943+00:00", "meta": {"OBJECT_NAME": "STARLINK-35667", "OBJECT_ID": "2025-257W", "EPOCH": "2025-12-02T06:00:02.999808", "MEAN_MOTION": 15.49330344, "ECCENTRICITY": 0.00015923, "INCLINATION": 53.1586, "RA_OF_ASC_NODE": 313.9342, "ARG_OF_PERICENTER": 93.5934, "MEAN_ANOMALY": 286.9855, "EPHEMERIS_TYPE": 0, "CLASSIFICATION_TYPE": "U", "NORAD_CAT_ID": 66400, "ELEMENT_SET_NO": 999, "REV_AT_EPOCH": 481, "BSTAR": -0.0015161432, "MEAN_MOTION_DOT": -0.00083937, "MEAN_MOTION_DDOT": 0}, "tle": {"line1": "1 66400U 25257W   25336.25003472 -.00083937  00000+0 -15161-2 0  9996", "line2": "2 66400  53.1586 313.9342 0001592  93.5934 286.9855 15.49330344  4813"}}, "geometry": {"type": "Point", "coordinates": [108.03884165418539, 28.421794125553376]}}, {"type": "Feature", "properties": {"norad_id": 66401, "name": "STARLINK-35668", "group": "last-30-days", "lat": 26.99313233509715, "lon": 109.52237305451054, "alt_km": 415.3407775009746, "timestamp": "2025-12-02T15:49:05.947953+00:00", "meta": {"OBJECT_NAME": "STARLINK-35668", "OBJECT_ID": "2025-257X", "EPOCH": "2025-12-02T06:00:02.999808", "MEAN_MOTION": 15.49402692, "ECCENTRICITY": 0.00013345, "INCLINATION": 53.1586, "RA_OF_ASC_NODE": 313.9308, "ARG_OF_PERICENTER": 91.0693, "MEAN_ANOMALY": 291.4409, "EPHEMERIS_TYPE": 0, "CLASSIFICATION_TYPE": "U", "NORAD_CAT_ID": 66401, "ELEMENT_SET_NO": 999, "REV_AT_EPOCH": 481, "BSTAR": -0.0043788915, "MEAN_MOTION_DOT": -0.00237523, "MEAN_MOTION_DDOT": 0}, "tle": {"line1": "1 66401U 25257X   25336.25003472 -.00237523  00000+0 -43789-2 0  9996", "line2": "2 66401  53.1586 313.9308 0001334  91.0693 291.4409 15.49402692  4817"}}, "geometry": {"type": "Point", "coordinates": [109.52237305451054, 26.99313233509715]}}, {"type": "Feature", "properties": {"norad_id": 66402, "name": "STARLINK-35644", "group": "last-30-days", "lat": 29.818213208212676, "lon": 106.53312133102091, "alt_km": 414.60611561413043, "timestamp": "2025-12-02T15:49:05.947963+00:00", "meta": {"OBJECT_NAME": "STARLINK-35644", "OBJECT_ID": "2025-257Y", "EPOCH": "2025-12-02T06:00:02.999808", "MEAN_MOTION": 15.49327563, "ECCENTRICITY": 0.00014386, "INCLINATION": 53.1587, "RA_OF_ASC_NODE": 313.9385, "ARG_OF_PERICENTER": 92.9385, "MEAN_ANOMALY": 285.7253, "EPHEMERIS_TYPE": 0, "CLASSIFICATION_TYPE": "U", "NORAD_CAT_ID": 66402, "ELEMENT_SET_NO": 999, "REV_AT_EPOCH": 481, "BSTAR": -0.0014569666, "MEAN_MOTION_DOT": -0.00080702, "MEAN_MOTION_DDOT": 0}, "tle": {"line1": "1 66402U 25257Y   25336.25003472 -.00080702  00000+0 -14570-2 0  9998", "line2": "2 66402  53.1587 313.9385 0001438  92.9385 285.7253 15.49327563  4813"}}, "geometry": {"type": "Point", "coordinates": [106.53312133102091, 29.818213208212676]}}]}